GLOBALSTAR M024         
1 25883U 99043A   26017.15802995 -.00000001  00000+0  22769-2 0  9995
2 25883  51.9995 257.8306 0002523  77.6973  93.7163 11.10166354138625
GLOBALSTAR M027         
1 25884U 99043B   26017.55783965 -.00000104  00000+0 -15370-2 0  9990
2 25884  52.0250 340.9822 0021504 338.1711  21.8165 11.04372760164923
GLOBALSTAR M054         
1 25885U 99043C   26017.49192317 -.00000106  00000+0 -88032-3 0  9997
2 25885  52.0150  72.4609 0005190 182.2921 286.8246 11.39224097143474
GLOBALSTAR M053         
1 25886U 99043D   26017.30744233 -.00000053  00000+0  44552-3 0  9997
2 25886  52.0004  31.8781 0003468  89.3691 283.9425 11.27669322143603
GLOBALSTAR M058         
1 25907U 99049A   26017.34180876 -.00000031  00000+0  71984-3 0  9993
2 25907  51.9928 257.3234 0001964 349.2462  10.8331 11.93207170567101
GLOBALSTAR M050         
1 25908U 99049B   26017.12890907  .00000069  00000+0  17718-2 0  9997
2 25908  51.9975 249.5835 0010092  95.2276   6.3289 12.07464400174032
GLOBALSTAR M033         
1 25909U 99049C   26017.54281382  .00000032  00000+0  11936-2 0  9991
2 25909  51.9913 105.4733 0013715 347.7486  12.3026 12.20298185561918
GLOBALSTAR M055         
1 25910U 99049D   26017.48264744 -.00000084  00000+0  86784-4 0  9992
2 25910  52.0023 105.9529 0007015 210.2759 149.7688 12.29439289194647
